{
  "type": "FeatureCollection",
  "name": "LocalRoadsAndPerimeter",
  "crs": {
    "type": "name",
    "properties": {
      "name": "urn:ogc:def:crs:OGC:1.3:CRS84"
    }
  },
  "features": [
    {
      "type": "Feature",
      "properties": {
        "name": "Central Perimeter Avenue",
        "type": "primary_road",
        "lanes": 2,
        "color": "#64748B"
      },
      "geometry": {
        "type": "LineString",
        "coordinates": [
          [78.3740, 17.4435],
          [78.3820, 17.4435]
        ]
      }
    },
    {
      "type": "Feature",
      "properties": {
        "name": "Security Access Boulevard",
        "type": "secondary_road",
        "lanes": 2,
        "color": "#64748B"
      },
      "geometry": {
        "type": "LineString",
        "coordinates": [
          [78.3780, 17.4410],
          [78.3780, 17.4490]
        ]
      }
    }
  ]
}
