{
  "type": "FeatureCollection",
  "name": "PerimeterSecurityZones",
  "crs": {
    "type": "name",
    "properties": {
      "name": "urn:ogc:def:crs:OGC:1.3:CRS84"
    }
  },
  "features": [
    {
      "type": "Feature",
      "id": "ZONE_01",
      "properties": {
        "zone_id": "ZONE_01",
        "name": "Pedestrian Concourse & Public Plaza",
        "type": "pedestrian_only",
        "restriction_level": "RESTRICTED_VEHICLES",
        "color": "#3B82F6",
        "fill_opacity": 0.25,
        "max_capacity": 50
      },
      "geometry": {
        "type": "Polygon",
        "coordinates": [
          [
            [78.3750, 17.4420],
            [78.3780, 17.4420],
            [78.3780, 17.4450],
            [78.3750, 17.4450],
            [78.3750, 17.4420]
          ]
        ]
      }
    },
    {
      "type": "Feature",
      "id": "ZONE_02",
      "properties": {
        "zone_id": "ZONE_02",
        "name": "Gate 1 Access & Vehicle Checkpoint",
        "type": "vehicle_entry",
        "restriction_level": "SECURITY_CHECKPOINT",
        "color": "#F59E0B",
        "fill_opacity": 0.3,
        "speed_limit_kmh": 20
      },
      "geometry": {
        "type": "Polygon",
        "coordinates": [
          [
            [78.3780, 17.4420],
            [78.3810, 17.4420],
            [78.3810, 17.4450],
            [78.3780, 17.4450],
            [78.3780, 17.4420]
          ]
        ]
      }
    },
    {
      "type": "Feature",
      "id": "ZONE_03",
      "properties": {
        "zone_id": "ZONE_03",
        "name": "Critical Infrastructure & Command Perimeter",
        "type": "restricted_perimeter",
        "restriction_level": "NO_UNAUTHORIZED_ACCESS",
        "color": "#EF4444",
        "fill_opacity": 0.35,
        "alarm_on_breach": true
      },
      "geometry": {
        "type": "Polygon",
        "coordinates": [
          [
            [78.3750, 17.4450],
            [78.3810, 17.4450],
            [78.3810, 17.4480],
            [78.3750, 17.4480],
            [78.3750, 17.4450]
          ]
        ]
      }
    }
  ]
}
